{
  "type": "FeatureCollection",
  "features": [
    {
      "type": "Feature",
      "properties": {
        "norad_id": 36828,
        "name": "BEIDOU-2 IGSO-1 (C06)",
        "group": "beidou",
        "lat": -24.491882797436016,
        "lon": 145.5369038404347,
        "alt_km": 35872.93967645259,
        "timestamp": "2025-12-05T20:43:02.320361+00:00",
        "meta_object_name": "BEIDOU-2 IGSO-1 (C06)",
        "meta_object_id": "2010-036A",
        "meta_epoch": "2025-12-04T10:48:55.401408",
        "meta_mean_motion": 1.0027836,
        "meta_eccentricity": 0.0051251,
        "meta_inclination": 54.2839,
        "meta_ra_of_asc_node": 164.7233,
        "meta_arg_of_pericenter": 215.778,
        "meta_mean_anomaly": 323.0243,
        "meta_ephemeris_type": 0,
        "meta_classification_type": "U",
        "meta_norad_cat_id": 36828,
        "meta_element_set_no": 999,
        "meta_rev_at_epoch": 5614,
        "meta_bstar": 0,
        "meta_mean_motion_dot": -3.3e-07,
        "meta_mean_motion_ddot": 0,
        "tle_line1": "1 36828U 10036A   25338.45064122 -.00000033  00000+0  00000+0 0  9997",
        "tle_line2": "2 36828  54.2839 164.7233 0051251 215.7780 323.0243  1.00278360 56140"
      },
      "geometry": {
        "type": "Point",
        "coordinates": [
          145.5369038404347,
          -24.491882797436016
        ]
      }
    },
    {
      "type": "Feature",
      "properties": {
        "norad_id": 37210,
        "name": "BEIDOU-2 G4 (C04)",
        "group": "beidou",
        "lat": 2.8414963571900125,
        "lon": -174.35151530483844,
        "alt_km": 35772.56463686665,
        "timestamp": "2025-12-05T20:43:02.320384+00:00",
        "meta_object_name": "BEIDOU-2 G4 (C04)",
        "meta_object_id": "2010-057A",
        "meta_epoch": "2025-12-05T05:53:56.141952",
        "meta_mean_motion": 1.00271299,
        "meta_eccentricity": 0.00109588,
        "meta_inclination": 3.1649,
        "meta_ra_of_asc_node": 69.9566,
        "meta_arg_of_pericenter": 189.1211,
        "meta_mean_anomaly": 63.7832,
        "meta_ephemeris_type": 0,
        "meta_classification_type": "U",
        "meta_norad_cat_id": 37210,
        "meta_element_set_no": 999,
        "meta_rev_at_epoch": 5534,
        "meta_bstar": 0,
        "meta_mean_motion_dot": -1.01e-06,
        "meta_mean_motion_ddot": 0,
        "tle_line1": "1 37210U 10057A   25339.24578868 -.00000101  00000+0  00000+0 0  9997",
        "tle_line2": "2 37210   3.1649  69.9566 0010958 189.1211  63.7832  1.00271299 55342"
      },
      "geometry": {
        "type": "Point",
        "coordinates": [
          -174.35151530483844,
          2.8414963571900125
        ]
      }
    },
    {
      "type": "Feature",
      "properties": {
        "norad_id": 37256,
        "name": "BEIDOU-2 IGSO-2 (C07)",
        "group": "beidou",
        "lat": -27.71940417823474,
        "lon": 122.49602323142844,
        "alt_km": 35578.65195893011,
        "timestamp": "2025-12-05T20:43:02.320400+00:00",
        "meta_object_name": "BEIDOU-2 IGSO-2 (C07)",
        "meta_object_id": "2010-068A",
        "meta_epoch": "2025-12-03T17:22:36.030432",
        "meta_mean_motion": 1.0028871,
        "meta_eccentricity": 0.00492335,
        "meta_inclination": 47.9043,
        "meta_ra_of_asc_node": 274.2613,
        "meta_arg_of_pericenter": 216.1442,
        "meta_mean_anomaly": 310.2369,
        "meta_ephemeris_type": 0,
        "meta_classification_type": "U",
        "meta_norad_cat_id": 37256,
        "meta_element_set_no": 999,
        "meta_rev_at_epoch": 5483,
        "meta_bstar": 0,
        "meta_mean_motion_dot": -2.25e-06,
        "meta_mean_motion_ddot": 0,
        "tle_line1": "1 37256U 10068A   25337.72402813 -.00000225  00000+0  00000+0 0  9993",
        "tle_line2": "2 37256  47.9043 274.2613 0049233 216.1442 310.2369  1.00288710 54839"
      },
      "geometry": {
        "type": "Point",
        "coordinates": [
          122.49602323142844,
          -27.71940417823474
        ]
      }
    },
    {
      "type": "Feature",
      "properties": {
        "norad_id": 37384,
        "name": "BEIDOU-2 IGSO-3 (C08)",
        "group": "beidou",
        "lat": 62.14873660376368,
        "lon": 133.93581539498487,
        "alt_km": 35794.78272071202,
        "timestamp": "2025-12-05T20:43:02.320414+00:00",
        "meta_object_name": "BEIDOU-2 IGSO-3 (C08)",
        "meta_object_id": "2011-013A",
        "meta_epoch": "2025-12-03T14:52:09.520896",
        "meta_mean_motion": 1.00272128,
        "meta_eccentricity": 0.00353922,
        "meta_inclination": 62.1308,
        "meta_ra_of_asc_node": 42.005,
        "meta_arg_of_pericenter": 186.5359,
        "meta_mean_anomaly": 174.9093,
        "meta_ephemeris_type": 0,
        "meta_classification_type": "U",
        "meta_norad_cat_id": 37384,
        "meta_element_set_no": 999,
        "meta_rev_at_epoch": 5370,
        "meta_bstar": 0,
        "meta_mean_motion_dot": -1.99e-06,
        "meta_mean_motion_ddot": 0,
        "tle_line1": "1 37384U 11013A   25337.61955464 -.00000199  00000+0  00000+0 0  9999",
        "tle_line2": "2 37384  62.1308  42.0050 0035392 186.5359 174.9093  1.00272128 53708"
      },
      "geometry": {
        "type": "Point",
        "coordinates": [
          133.93581539498487,
          62.14873660376368
        ]
      }
    },
    {
      "type": "Feature",
      "properties": {
        "norad_id": 37763,
        "name": "BEIDOU-2 IGSO-4 (C09)",
        "group": "beidou",
        "lat": -35.793501126425234,
        "lon": 136.47403737729022,
        "alt_km": 35710.62445187841,
        "timestamp": "2025-12-05T20:43:02.320426+00:00",
        "meta_object_name": "BEIDOU-2 IGSO-4 (C09)",
        "meta_object_id": "2011-038A",
        "meta_epoch": "2025-12-01T12:32:09.960864",
        "meta_mean_motion": 1.00284074,
        "meta_eccentricity": 0.01487808,
        "meta_inclination": 54.5808,
        "meta_ra_of_asc_node": 167.4476,
        "meta_arg_of_pericenter": 230.2031,
        "meta_mean_anomaly": 315.0387,
        "meta_ephemeris_type": 0,
        "meta_classification_type": "U",
        "meta_norad_cat_id": 37763,
        "meta_element_set_no": 999,
        "meta_rev_at_epoch": 5266,
        "meta_bstar": 0,
        "meta_mean_motion_dot": 1.01e-06,
        "meta_mean_motion_ddot": 0,
        "tle_line1": "1 37763U 11038A   25335.52233751  .00000101  00000+0  00000+0 0  9995",
        "tle_line2": "2 37763  54.5808 167.4476 0148780 230.2031 315.0387  1.00284074 52664"
      },
      "geometry": {
        "type": "Point",
        "coordinates": [
          136.47403737729022,
          -35.793501126425234
        ]
      }
    },
    {
      "type": "Feature",
      "properties": {
        "norad_id": 37948,
        "name": "BEIDOU-2 IGSO-5 (C10)",
        "group": "beidou",
        "lat": -17.56034579646637,
        "lon": 110.4161238847093,
        "alt_km": 35340.9186121567,
        "timestamp": "2025-12-05T20:43:02.320439+00:00",
        "meta_object_name": "BEIDOU-2 IGSO-5 (C10)",
        "meta_object_id": "2011-073A",
        "meta_epoch": "2025-12-04T19:17:55.815936",
        "meta_mean_motion": 1.00292045,
        "meta_eccentricity": 0.01106348,
        "meta_inclination": 48.036,
        "meta_ra_of_asc_node": 273.956,
        "meta_arg_of_pericenter": 222.1589,
        "meta_mean_anomaly": 319.7219,
        "meta_ephemeris_type": 0,
        "meta_classification_type": "U",
        "meta_norad_cat_id": 37948,
        "meta_element_set_no": 999,
        "meta_rev_at_epoch": 5118,
        "meta_bstar": 0,
        "meta_mean_motion_dot": -1.77e-06,
        "meta_mean_motion_ddot": 0,
        "tle_line1": "1 37948U 11073A   25338.80411824 -.00000177  00000+0  00000+0 0  9996",
        "tle_line2": "2 37948  48.0360 273.9560 0110634 222.1589 319.7219  1.00292045 51180"
      },
      "geometry": {
        "type": "Point",
        "coordinates": [
          110.4161238847093,
          -17.56034579646637
        ]
      }
    },
    {
      "type": "Feature",
      "properties": {
        "norad_id": 38091,
        "name": "BEIDOU-2 G5 (C05)",
        "group": "beidou",
        "lat": 0.7581787821564282,
        "lon": 84.43225643606955,
        "alt_km": 35830.18138383775,
        "timestamp": "2025-12-05T20:43:02.320451+00:00",
        "meta_object_name": "BEIDOU-2 G5 (C05)",
        "meta_object_id": "2012-008A",
        "meta_epoch": "2025-12-05T01:59:26.111904",
        "meta_mean_motion": 1.00272818,
        "meta_eccentricity": 0.00124323,
        "meta_inclination": 3.089,
        "meta_ra_of_asc_node": 70.7304,
        "meta_arg_of_pericenter": 225.8222,
        "meta_mean_anomaly": 226.162,
        "meta_ephemeris_type": 0,
        "meta_classification_type": "U",
        "meta_norad_cat_id": 38091,
        "meta_element_set_no": 999,
        "meta_rev_at_epoch": 5042,
        "meta_bstar": 0,
        "meta_mean_motion_dot": 6.8e-07,
        "meta_mean_motion_ddot": 0,
        "tle_line1": "1 38091U 12008A   25339.08294111  .00000068  00000+0  00000+0 0  9992",
        "tle_line2": "2 38091   3.0890  70.7304 0012432 225.8222 226.1620  1.00272818 50428"
      },
      "geometry": {
        "type": "Point",
        "coordinates": [
          84.43225643606955,
          0.7581787821564282
        ]
      }
    }
  ]
}